GLOBALSTAR M063 [+]     
1 26081U 00008A   23337.50628451 -.00000076  00000+0  99268-4 0  9995
2 26081  51.9920 150.8068 0003718 331.5123  61.9642 11.86148477 90925
GLOBALSTAR M062 [-]     
1 26082U 00008B   23337.34364618 -.00000047  00000+0  36833-3 0  9996
2 26082  51.9861 307.9340 0007315 355.9917 155.6182 12.43422479426728
GLOBALSTAR M060 [-]     
1 26083U 00008C   23337.02694356 -.00000060  00000+0  30588-3 0  9993
2 26083  51.9991 189.3452 0004684  68.2437  79.0696 12.17620250 83889
GLOBALSTAR M064 [-]     
1 26084U 00008D   23337.10134816 -.00000035  00000+0  68813-3 0  9997
2 26084  52.0032 257.3318 0002396  55.6798 304.4261 11.88513134100267
GLOBALSTAR M069 [+]     
1 31573U 07020C   23337.49083154 -.00000083  00000+0  11613-3 0  9996
2 31573  51.9945  91.8913 0000962 129.9621 308.3690 12.62261502763611
GLOBALSTAR M071 [P]     
1 31576U 07020F   23337.51763760 -.00000071  00000+0  18010-3 0  9995
2 31576  52.0059  96.8225 0000708 108.6066 330.7025 12.62273537424805
